IRIDIUM 159             
1 43578U 18061K   24198.93961088  .00000009  00000+0 -38588-5 0  9997
2 43578  86.3987 349.3439 0001798  95.4556 264.6844 14.34217582313013
IRIDIUM 180             
1 43922U 19002A   24199.21818050  .00000398  00000+0  13493-3 0  9994
2 43922  86.3964 286.1066 0002210  98.8233 261.3213 14.34219344288703
IRIDIUM 176             
1 43923U 19002B   24198.27600027  .00001767  00000+0  27624-3 0  9995
2 43923  86.6093 286.5202 0002159  95.1854 264.9610 14.72269839296128
IRIDIUM 168             
1 43924U 19002C   24198.79322834 -.00000058  00000+0 -27678-4 0  9994
2 43924  86.3967 286.3420 0002021  93.7042 266.4385 14.34217510288581
IRIDIUM 173             
1 43925U 19002D   24198.71077447  .00000063  00000+0  15454-4 0  9997
2 43925  86.3964 286.2940 0002112  95.0090 265.1347 14.34217951288554
IRIDIUM 169             
1 43926U 19002E   24198.82566049  .00000213  00000+0  63248-4 0  9992
2 43926  86.4244 317.8744 0003923 115.3368 244.8237 14.38608474289534
IRIDIUM 172             
1 43927U 19002F   24199.19279860  .00000325  00000+0  10905-3 0  9991
2 43927  86.3963 286.0982 0002226  91.9976 268.1475 14.34214803288630
IRIDIUM 175             
1 43928U 19002G   24198.67817477  .00001534  00000+0  23920-3 0  9990
2 43928  86.1492 257.8255 0002380 100.8908 259.2576 14.72259949296174
